NORAD_CAT_ID,OBJECT_NAME,OBJECT_TYPE,EPOCH,MEAN_MOTION,ECCENTRICITY,INCLINATION,RA_OF_ASC_NODE,ARG_OF_PERICENTER,MEAN_ANOMALY,BSTAR,MEAN_MOTION_DOT,MEAN_MOTION_DDOT,TLE_LINE0,TLE_LINE1,TLE_LINE2,SEMIMAJOR_AXIS,PERIOD,APOGEE,PERIGEE,DECAYED
53853.0,STARLINK-4794,PAYLOAD,2023-05-29 22:37:52,15.088349,9.81e-05,53.2154,169.1921,89.6577,270.4527,1.0096e-05,-1.27e-06,0.0,0 STARLINK-4794,1 53853U 22114AM  23149.94297236 -.00000127  00000-0  10096-4 0  9996,2 53853  53.2154 169.1921 0000981  89.6577 270.4527 15.08834900 39248,6917.896,95.438,540.44,539.082,0.0
53853.0,STARLINK-4794,PAYLOAD,2023-05-30 11:20:58,15.08833733,9.82e-05,53.2155,166.8133,86.3327,273.7777,-5.2116e-06,-3.71e-06,0.0,0 STARLINK-4794,1 53853U 22114AM  23150.47289482 -.00000371  00000-0 -52116-5 0  9992,2 53853  53.2155 166.8133 0000982  86.3327 273.7777 15.08833733 39860,6917.9,95.438,540.444,539.085,0.0
53853.0,STARLINK-4794,PAYLOAD,2023-05-31 09:36:21,15.08839076,9.83e-05,53.2156,162.6502,84.5267,275.5837,4.5688e-05,4.39e-06,0.0,0 STARLINK-4794,1 53853U 22114AM  23151.40025170  .00000439  00000-0  45688-4 0  9996,2 53853  53.2156 162.6502 0000983  84.5267 275.5837 15.08839076 39468,6917.883,95.438,540.428,539.068,0.0
53853.0,STARLINK-4794,PAYLOAD,2023-06-01 09:27:08,15.08847425,9.83e-05,53.2159,158.1907,76.4868,283.6234,0.00017603,2.515e-05,0.0,0 STARLINK-4794,1 53853U 22114AM  23152.39384512  .00002515  00000-0  17603-3 0  9995,2 53853  53.2159 158.1907 0000983  76.4868 283.6234 15.08847425 40153,6917.858,95.437,540.403,539.043,0.0
53853.0,STARLINK-4794,PAYLOAD,2023-06-02 07:42:32,15.08837752,0.0001032,53.2159,154.0242,84.3376,275.7734,4.1355e-05,3.7e-06,0.0,0 STARLINK-4794,1 53853U 22114AM  23153.32121449  .00000370  00000-0  41355-4 0  9996,2 53853  53.2159 154.0242 0001032  84.3376 275.7734 15.08837752 39751,6917.887,95.438,540.466,539.038,0.0
53853.0,STARLINK-4794,PAYLOAD,2023-06-02 17:14:51,15.08838565,0.0001015,53.2157,152.2429,85.0587,275.0521,5.5012e-05,5.88e-06,0.0,0 STARLINK-4794,1 53853U 22114AM  23153.71865464  .00000588  00000-0  55012-4 0  9997,2 53853  53.2157 152.2429 0001015  85.0587 275.0521 15.08838565 40357,6917.885,95.438,540.452,539.048,0.0
53853.0,STARLINK-4794,PAYLOAD,2023-06-03 09:08:43,15.08843058,9.91e-05,53.215,149.2696,85.0759,275.0346,-1.2671e-05,-4.89e-06,0.0,0 STARLINK-4794,1 53853U 22114AM  23154.38105351 -.00000489  00000-0 -12671-4 0  9999,2 53853  53.2150 149.2696 0000991  85.0759 275.0346 15.08843058 39913,6917.871,95.437,540.422,539.05,0.0
53853.0,STARLINK-4794,PAYLOAD,2023-06-03 17:05:38,15.08842123,0.0001006,53.215,147.783,84.0747,276.036,1.0492e-05,-1.21e-06,0.0,0 STARLINK-4794,1 53853U 22114AM  23154.71225280 -.00000121  00000-0  10492-4 0  9991,2 53853  53.2150 147.7830 0001006  84.0747 276.0360 15.08842123 40506,6917.874,95.437,540.435,539.043,0.0
53853.0,STARLINK-4794,PAYLOAD,2023-06-04 08:59:29,15.08841096,0.0001002,53.2157,144.8089,85.183,274.9276,8.4165e-05,1.052e-05,0.0,0 STARLINK-4794,1 53853U 22114AM  23155.37465177  .00001052  00000-0  84165-4 0  9996,2 53853  53.2157 144.8089 0001002  85.1830 274.9276 15.08841096 40600,6917.877,95.437,540.435,539.049,0.0
53853.0,STARLINK-4794,PAYLOAD,2023-06-04 18:31:48,15.08838301,0.0001001,53.2156,143.0244,85.5288,274.5818,6.1961e-05,6.98e-06,0.0,0 STARLINK-4794,1 53853U 22114AM  23155.77209412  .00000698  00000-0  61961-4 0  9992,2 53853  53.2156 143.0244 0001001  85.5288 274.5818 15.08838301 40123,6917.886,95.438,540.443,539.058,0.0
53853.0,STARLINK-4794,PAYLOAD,2023-06-05 05:39:30,15.08839939,0.0001013,53.2155,140.9426,87.2799,272.8309,6.1377e-05,6.89e-06,0.0,0 STARLINK-4794,1 53853U 22114AM  23156.23577330  .00000689  00000-0  61377-4 0  9992,2 53853  53.2155 140.9426 0001013  87.2799 272.8309 15.08839939 40730,6917.881,95.438,540.446,539.045,0.0
53853.0,STARLINK-4794,PAYLOAD,2023-06-06 00:44:08,15.08837978,0.0001042,53.2156,137.3741,87.7809,272.3303,1.2149e-05,-9.4e-07,0.0,0 STARLINK-4794,1 53853U 22114AM  23157.03065698 -.00000094  00000-0  12149-4 0  9994,2 53853  53.2156 137.3741 0001042  87.7809 272.3303 15.08837978 40314,6917.887,95.438,540.472,539.031,0.0
53853.0,STARLINK-4794,PAYLOAD,2023-06-06 08:41:04,15.0883744,0.0001047,53.2156,135.8874,86.9698,273.1414,8.2269e-06,-1.57e-06,0.0,0 STARLINK-4794,1 53853U 22114AM  23157.36185782 -.00000157  00000-0  82269-5 0  9998,2 53853  53.2156 135.8874 0001047  86.9698 273.1414 15.08837440 40907,6917.888,95.438,540.478,539.029,0.0
53853.0,STARLINK-4794,PAYLOAD,2023-06-06 18:13:23,15.08835486,0.0001022,53.2157,134.1037,87.1763,272.9346,1.6275e-05,-2.9e-07,0.0,0 STARLINK-4794,1 53853U 22114AM  23157.75929964 -.00000029  00000-0  16275-4 0  9990,2 53853  53.2157 134.1037 0001022  87.1763 272.9346 15.08835486 40965,6917.894,95.438,540.466,539.052,0.0
53853.0,STARLINK-4794,PAYLOAD,2023-06-07 05:21:05,15.08838777,0.0001037,53.2158,132.0223,87.5589,272.5522,5.6008e-05,6.04e-06,0.0,0 STARLINK-4794,1 53853U 22114AM  23158.22297746  .00000604  00000-0  56008-4 0  9995,2 53853  53.2158 132.0223 0001037  87.5589 272.5522 15.08838777 40492,6917.884,95.438,540.467,539.032,0.0
53853.0,STARLINK-4794,PAYLOAD,2023-06-07 18:04:10,15.08833212,0.0001034,53.2159,129.6438,88.6365,271.4746,2.7421e-05,1.49e-06,0.0,0 STARLINK-4794,1 53853U 22114AM  23158.75290322  .00000149  00000-0  27421-4 0  9997,2 53853  53.2159 129.6438 0001034  88.6365 271.4746 15.08833212 40578,6917.901,95.438,540.481,539.051,0.0
53853.0,STARLINK-4794,PAYLOAD,2023-06-07 21:14:57,15.08832191,0.0001037,53.2158,129.0491,88.9586,271.1525,1.7656e-05,-7e-08,0.0,0 STARLINK-4794,1 53853U 22114AM  23158.88538474 -.00000007  00000-0  17656-4 0  9997,2 53853  53.2158 129.0491 0001037  88.9586 271.1525 15.08832191 41131,6917.904,95.438,540.487,539.052,0.0
53853.0,STARLINK-4794,PAYLOAD,2023-06-08 06:47:16,15.0883493,0.0001033,53.216,127.2648,87.5936,272.5175,3.6598e-05,2.95e-06,0.0,0 STARLINK-4794,1 53853U 22114AM  23159.28282429  .00000295  00000-0  36598-4 0  9992,2 53853  53.2160 127.2648 0001033  87.5936 272.5175 15.08834930 41193,6917.896,95.438,540.476,539.046,0.0
53853.0,STARLINK-4794,PAYLOAD,2023-06-08 14:44:11,15.08836365,0.0001039,53.2161,125.778,87.5751,272.5361,4.6118e-05,4.46e-06,0.0,0 STARLINK-4794,1 53853U 22114AM  23159.61402406  .00000446  00000-0  46118-4 0  9995,2 53853  53.2161 125.7780 0001039  87.5751 272.5361 15.08836365 41242,6917.891,95.438,540.475,539.038,0.0
53853.0,STARLINK-4794,PAYLOAD,2023-06-08 22:41:07,15.08840309,0.0001036,53.2161,124.2912,88.3551,271.756,9.2136e-05,1.179e-05,0.0,0 STARLINK-4794,1 53853U 22114AM  23159.94522084  .00001179  00000-0  92136-4 0  9991,2 53853  53.2161 124.2912 0001036  88.3551 271.7560 15.08840309 40757,6917.879,95.438,540.461,539.028,0.0
53853.0,STARLINK-4794,PAYLOAD,2023-06-09 06:38:02,15.08847505,0.0001038,53.2162,122.8043,88.8997,271.2114,0.00011054,1.472e-05,0.0,0 STARLINK-4794,1 53853U 22114AM  23160.27641555  .00001472  00000-0  11054-3 0  9999,2 53853  53.2162 122.8043 0001038  88.8997 271.2114 15.08847505 41349,6917.857,95.437,540.441,539.004,0.0
53853.0,STARLINK-4794,PAYLOAD,2023-06-10 03:18:04,15.08834152,0.0001072,53.2163,118.9385,88.0113,272.1002,6.2e-05,6.99e-06,0.0,0 STARLINK-4794,1 53853U 22114AM  23161.13754661  .00000699  00000-0  62000-4 0  9996,2 53853  53.2163 118.9385 0001072  88.0113 272.1002 15.08834152 40939,6917.898,95.438,540.505,539.022,0.0
53853.0,STARLINK-4794,PAYLOAD,2023-06-10 06:28:50,15.08837655,0.0001117,53.2159,118.3437,91.5602,268.5518,7.2808e-05,8.71e-06,0.0,0 STARLINK-4794,1 53853U 22114AM  23161.27002424  .00000871  00000-0  72808-4 0  9993,2 53853  53.2159 118.3437 0001117  91.5602 268.5518 15.08837655 41492,6917.888,95.438,540.525,538.98,0.0
53853.0,STARLINK-4794,PAYLOAD,2023-06-10 20:47:18,15.08838508,0.000122,53.2159,115.668,86.102,274.0112,-6.2594e-06,-3.87e-06,0.0,0 STARLINK-4794,1 53853U 22114AM  23161.86618747 -.00000387  00000-0 -62594-5 0  9995,2 53853  53.2159 115.6680 0001220  86.1020 274.0112 15.08838508 41581,6917.885,95.438,540.594,538.906,0.0
53853.0,STARLINK-4794,PAYLOAD,2023-06-11 06:19:37,15.08838664,0.0001151,53.2157,113.8829,109.4553,250.6564,-7.465e-06,-4.07e-06,0.0,0 STARLINK-4794,1 53853U 22114AM  23162.26362682 -.00000407  00000-0 -74650-5 0  9993,2 53853  53.2157 113.8829 0001151 109.4553 250.6564 15.08838664 41109,6917.884,95.438,540.546,538.953,0.0
53853.0,STARLINK-4794,PAYLOAD,2023-06-11 14:16:32,15.08844491,0.0001208,53.2168,112.3963,86.6349,273.4782,-2.2267e-06,-3.23e-06,0.0,0 STARLINK-4794,1 53853U 22114AM  23162.59482347 -.00000323  00000-0 -22267-5 0  9994,2 53853  53.2168 112.3963 0001208  86.6349 273.4782 15.08844491 41690,6917.867,95.437,540.567,538.896,0.0
53853.0,STARLINK-4794,PAYLOAD,2023-06-11 20:38:05,15.08840712,0.0001251,53.2165,111.2066,85.9096,274.2039,7.1917e-05,8.57e-06,0.0,0 STARLINK-4794,1 53853U 22114AM  23162.85978385  .00000857  00000-0  71917-4 0  9990,2 53853  53.2165 111.2066 0001251  85.9096 274.2039 15.08840712 41739,6917.878,95.438,540.609,538.878,0.0
53853.0,STARLINK-4794,PAYLOAD,2023-06-12 02:59:37,15.08843577,0.0001255,53.2163,110.0174,86.7852,273.3284,0.00013466,1.856e-05,0.0,0 STARLINK-4794,1 53853U 22114AM  23163.12474002  .00001856  00000-0  13466-3 0  9992,2 53853  53.2163 110.0174 0001255  86.7852 273.3284 15.08843577 41236,6917.869,95.437,540.603,538.866,0.0
53853.0,STARLINK-4794,PAYLOAD,2023-06-12 06:10:23,15.08847759,0.0001335,53.2164,109.422,90.2473,269.8672,0.00010505,1.385e-05,0.0,0 STARLINK-4794,1 53853U 22114AM  23163.25721756  .00001385  00000-0  10505-3 0  9995,2 53853  53.2164 109.4220 0001335  90.2473 269.8672 15.08847759 41797,6917.857,95.437,540.645,538.798,0.0
53853.0,STARLINK-4794,PAYLOAD,2023-06-13 02:50:25,15.08834048,0.0001374,53.2166,105.5556,92.7477,267.3672,9.1472e-06,-1.42e-06,0.0,0 STARLINK-4794,1 53853U 22114AM  23164.11834979 -.00000142  00000-0  91472-5 0  9998,2 53853  53.2166 105.5556 0001374  92.7477 267.3672 15.08834048 41387,6917.899,95.438,540.714,538.813,0.0
